COSMOS 2426 (717)       
1 29671U 06062B   20041.35695024  .00000057  00000-0  10000-3 0  9996
2 29671  65.0163 272.2424 0019663 170.7134 151.6323  2.12962316102162
COSMOS 2433 (720)       
1 32275U 07052A   20041.07234564 -.00000021  00000-0  10000-3 0  9999
2 32275  65.9399  33.1978 0005480 264.9640 273.6075  2.13104429 95674
COSMOS 2432 (719)       
1 32276U 07052B   20041.37383322 -.00000022  00000-0  10000-3 0  9991
2 32276  65.9538  33.2745 0012394 319.0175  41.3126  2.13103757 95681
COSMOS 2434 (721)       
1 32393U 07065A   20041.10879495  .00000061  00000-0  00000-0 0  9995
2 32393  64.6225 270.8243 0004314  70.8512  23.1034  2.13102978 94388
COSMOS 2436 (723)       
1 32395U 07065C   20040.27443286  .00000069  00000-0  10000-3 0  9991
2 32395  64.6313 270.9039 0015675   5.9264 304.2167  2.13103218 94295
COSMOS 2456 (730)       
1 36111U 09070A   20041.37662112  .00000023  00000-0  00000-0 0  9998
2 36111  64.2174 150.4776 0003090 330.2803 142.5321  2.13102781 79053
COSMOS 2457 (733)       
1 36112U 09070B   20041.06160657  .00000021  00000-0  00000-0 0  9990
2 36112  64.1991 150.3832 0006053 158.5625 196.4743  2.13101445 79048
COSMOS 2459 (731)       
1 36400U 10007A   20041.35184105 -.00000023  00000-0  10000-3 0  9995
2 36400  65.8445  32.1747 0026658 344.2209 263.7396  2.13105209 77409
COSMOS 2461 (735)       
1 36401U 10007B   20041.01093725 -.00000022  00000-0  10000-3 0  9995
2 36401  65.8373  32.1572 0004998  45.1023 210.8777  2.13102024 77396
COSMOS 2460 (732)       
1 36402U 10007C   20040.41562990 -.00000019  00000-0  10000-3 0  9990
2 36402  65.8271  32.1376 0002744 279.1186 279.5537  2.13101483 77385
COSMOS 2464 (736)       
1 37139U 10041C   20040.73369286  .00000064  00000-0  00000-0 0  9999
2 37139  64.2225 270.3409 0027669  12.8771  17.8732  2.13100730 73462
COSMOS 2474 (742)       
1 37829U 11055A   20041.09872601  .00000022  00000-0  00000-0 0  9995
2 37829  64.5374 151.4570 0008557 242.1660 232.7992  2.13101945 65044
COSMOS 2476 (744)       
1 37867U 11064A   20040.88799436  .00000021  00000-0  00000-0 0  9996
2 37867  64.5179 151.5110 0018412 235.4631 124.0258  2.13101857 64380
COSMOS 2477 (745)       
1 37868U 11064B   20041.12808942  .00000022  00000-0  00000-0 0  9999
2 37868  64.5258 151.5576 0016206 236.4519 125.8018  2.13101726 64355
COSMOS 2475 (743)       
1 37869U 11064C   20041.54004247  .00000025  00000-0  00000-0 0  9995
2 37869  64.5325 151.5445 0020017 260.6080  14.9766  2.13101891 64365
COSMOS 2485 (747)       
1 39155U 13019A   20040.25639384  .00000017  00000-0  00000-0 0  9991
2 39155  64.6858 151.7732 0019136 231.2171  48.3636  2.13101842 52846
COSMOS 2492 (754)       
1 39620U 14012A   20041.08060927 -.00000023  00000-0  10000-3 0  9997
2 39620  65.7173  31.9167 0015693 318.1861 268.8059  2.13103378 45814
COSMOS 2500 (755)       
1 40001U 14032A   20041.22172020 -.00000023  00000-0  00000-0 0  9994
2 40001  65.6591  31.8360 0007656 226.9863 329.0922  2.13102656 44034
COSMOS 2501 (702K)      
1 40315U 14075A   20041.49284222  .00000054  00000-0  00000-0 0  9999
2 40315  63.9397 271.3091 0014896 206.4154 353.6551  2.13098591 40443
COSMOS 2514 (751)       
1 41330U 16008A   20041.01258117 -.00000023  00000-0  00000-0 0  9994
2 41330  65.4609  31.7480 0011326 227.9520 349.8621  2.13103034 31190
COSMOS 2516 (753)       
1 41554U 16032A   20040.79651340  .00000062  00000-0  00000-0 0  9990
2 41554  64.1611 271.3695 0010700 218.7056  84.0265  2.13101836 28796
COSMOS 2522 (752)       
1 42939U 17055A   20041.52820994  .00000055  00000-0  00000-0 0  9991
2 42939  64.3937 271.4863 0005865 255.7502 114.8642  2.13102031 18572
COSMOS 2527 (756)       
1 43508U 18053A   20041.34497998  .00000024  00000-0  00000-0 0  9993
2 43508  64.8501 151.5584 0006724 224.2000  37.4714  2.13102628 12851
COSMOS 2529 (757)       
1 43687U 18086A   20041.37607728  .00000057  00000-0  00000+0 0  9999
2 43687  64.6125 271.5765 0008902 281.8136 287.7275  2.13102112  9870
COSMOS 2534 (758)       
1 44299U 19030A   20040.85337561  .00000063  00000-0  00000-0 0  9994
2 44299  64.6799 271.3984 0012363 298.8979   4.7392  2.13101793  5504
